OBJECT_NAME,OBJECT_ID,EPOCH,MEAN_MOTION,ECCENTRICITY,INCLINATION,RA_OF_ASC_NODE,ARG_OF_PERICENTER,MEAN_ANOMALY,EPHEMERIS_TYPE,CLASSIFICATION_TYPE,NORAD_CAT_ID,ELEMENT_SET_NO,REV_AT_EPOCH,BSTAR,MEAN_MOTION_DOT,MEAN_MOTION_DDOT
HULIANWANG DIGUI-160,2026-047F,2026-06-08T12:48:14.152896,13.29333056,.00006962,50.0074,87.0190,48.2024,311.8907,0,U,68134,999,1191,.95241313E-4,-.8E-6,0
HULIANWANG DIGUI-161,2026-047G,2026-06-08T13:00:17.415072,13.29332141,.00004574,50.0093,87.0776,56.9405,303.1512,0,U,68135,999,1192,.99372602E-4,-.78E-6,0
HULIANWANG DIGUI-162,2026-047H,2026-06-08T12:36:20.657376,13.29328533,.00003942,50.0063,86.9693,62.8834,297.2078,0,U,68136,999,1191,.91899731E-4,-.81E-6,0
HULIANWANG DIGUI-163,2026-047J,2026-06-08T12:24:13.461408,13.29331829,.00004046,50.0065,86.9277,70.4204,289.6711,0,U,68137,999,1192,.90111536E-4,-.82E-6,0
SHIYAN-30 03,2026-048A,2026-06-08T17:27:25.413408,14.91807596,.0005497,35.0008,318.5779,276.9470,83.0609,0,U,68139,999,1310,.22982E-3,.2336E-4,0
SHIYAN-30 04,2026-048B,2026-06-08T17:28:56.078976,14.91793447,.0003974,34.9925,318.5377,287.1506,72.8763,0,U,68140,999,1310,.22404E-3,.2276E-4,0
STARLINK-36604,2026-049A,2026-06-08T18:43:27.010272,15.33447657,.000126,97.2842,181.1750,79.6819,280.4566,0,U,68142,999,1360,.68994E-3,.22266E-3,0
STARLINK-36995,2026-049B,2026-06-08T12:04:05.345760,15.33438152,.00013949,97.2848,180.9407,97.0803,263.0598,0,U,68143,999,1356,.58138145E-3,.18737E-3,0
STARLINK-37020,2026-049C,2026-06-08T00:42:49.223232,15.33423666,.00010404,97.2839,180.5132,96.1640,263.9722,0,U,68144,999,1349,.53478487E-3,.17218E-3,0
STARLINK-36244,2026-049D,2026-06-08T11:56:15.477504,15.33439544,.00013582,97.2849,180.9482,94.6109,265.5289,0,U,68145,999,1356,.59666403E-3,.19233E-3,0
STARLINK-36980,2026-049E,2026-06-08T19:10:51.252384,15.33455325,.0001043,97.2847,181.3050,94.7144,265.4217,0,U,68146,999,1361,.7024E-3,.22677E-3,0
STARLINK-37055,2026-049F,2026-06-08T12:11:54.996288,15.33449034,.00011701,97.2852,180.9355,100.3134,259.8241,0,U,68147,999,1356,.83065202E-3,.2684E-3,0
STARLINK-36981,2026-049G,2026-06-08T19:38:17.665728,15.33456485,.0001883,97.2847,181.2754,91.9567,268.1892,0,U,68148,999,1361,.66021E-3,.21307E-3,0
STARLINK-36992,2026-049H,2026-06-08T19:14:46.237056,15.33453533,.0001107,97.2845,181.3012,94.2208,265.9161,0,U,68149,999,1361,.70383E-3,.22722E-3,0
STARLINK-37060,2026-049J,2026-06-08T00:38:54.325824,15.33435906,.00016643,97.2836,180.5180,92.5371,267.6063,0,U,68150,999,1349,.67456422E-3,.21759E-3,0
STARLINK-37073,2026-049K,2026-06-08T19:34:20.958240,15.33449858,.0000954,97.2843,181.2799,83.5100,276.6252,0,U,68151,999,1361,.66161E-3,.21348E-3,0
STARLINK-37049,2026-049L,2026-06-07T22:45:21.672000,15.33434680,.00013657,97.2843,180.4711,85.8982,274.2417,0,U,68152,999,1348,.61838632E-3,.19935E-3,0
STARLINK-37072,2026-049M,2026-06-08T11:52:20.429760,15.33441973,.00013832,97.2840,180.9542,97.7315,262.4085,0,U,68153,999,1356,.49443955E-3,.1592E-3,0
STARLINK-36241,2026-049N,2026-06-08T18:55:11.352576,15.33462338,.0000535,97.2843,181.1662,119.3559,240.7737,0,U,68154,999,1360,.92475E-3,.29914E-3,0
STARLINK-37048,2026-049P,2026-06-08T18:59:06.504000,15.33454039,.0000894,97.2848,181.1642,100.6477,259.4866,0,U,68155,999,1360,.74201E-3,.23962E-3,0
STARLINK-36313,2026-049Q,2026-06-08T18:51:16.555392,15.33467574,.0000538,97.2851,181.1715,108.2267,251.9034,0,U,68156,999,1360,.1222E-2,.3961E-3,0
STARLINK-37064,2026-049R,2026-06-08T19:22:36.024096,15.33460598,.000084,97.2858,181.2953,74.5941,285.5394,0,U,68157,999,1361,.67164E-3,.21681E-3,0
STARLINK-37069,2026-049S,2026-06-08T01:33:43.283520,15.33447658,.00016383,97.2841,180.4655,109.7537,250.3883,0,U,68158,999,1349,.75265675E-3,.24304E-3,0
STARLINK-37053,2026-049T,2026-06-08T12:00:10.399104,15.33437374,.00011137,97.2847,180.9462,100.8011,259.3358,0,U,68159,999,1356,.5838984E-3,.18818E-3,0
STARLINK-36306,2026-049U,2026-06-08T18:31:42.484800,15.33450186,.0001963,97.2832,181.1855,76.6926,283.4535,0,U,68160,999,1360,.68442E-3,.22089E-3,0
STARLINK-37057,2026-049V,2026-06-08T18:39:32.431680,15.33432239,.0001327,97.2841,181.1821,105.2976,254.8413,0,U,68161,999,1360,.69811E-3,.22521E-3,0
STARLINK-37013,2026-049W,2026-06-08T12:08:00.110976,15.33439320,.00011411,97.2844,180.9383,99.7226,260.4145,0,U,68162,999,1356,.57892509E-3,.18658E-3,0
STARLINK-36958,2026-049X,2026-06-08T19:03:01.512000,15.33451287,.000124,97.2842,181.1595,91.7131,268.4254,0,U,68163,999,1360,.66731E-3,.21534E-3,0
STARLINK-37002,2026-049Y,2026-06-08T18:35:36.781728,15.33455757,.0001045,97.2841,181.1853,127.6624,232.4713,0,U,68164,999,1360,.69141E-3,.2232E-3,0
STARLINK-36971,2026-049Z,2026-06-08T19:18:40.589280,15.33442878,.0001052,97.2880,181.2963,85.5512,274.5851,0,U,68165,999,1361,.70565E-3,.22773E-3,0
STARLINK-36273,2026-049AA,2026-06-08T19:01:14.130624,15.33461927,.0000974,97.2860,182.0755,95.6752,264.4602,0,U,68166,999,1366,.85446E-3,.27626E-3,0
STARLINK-36969,2026-050A,2026-06-08T09:25:54.648768,15.38831614,.00011492,53.1578,204.5011,72.3088,287.8042,0,U,68167,999,1458,.76861193E-3,.2968E-3,0
STARLINK-36984,2026-050B,2026-06-08T19:48:34.167744,15.34401464,.0001151,53.1581,202.2299,81.3601,278.7532,0,U,68168,999,1465,.47458E-3,.15693E-3,0
STARLINK-37077,2026-050C,2026-06-08T09:46:32.312352,15.34404413,.00011172,53.1590,204.5879,82.1157,277.9973,0,U,68169,999,1458,.70481981E-3,.23515E-3,0
STARLINK-37003,2026-050D,2026-06-08T20:00:04.971168,15.38849307,.0001448,53.1577,202.2673,86.8655,273.2515,0,U,68170,999,1465,.98559E-3,.38236E-3,0
STARLINK-37034,2026-050E,2026-06-08T09:19:17.077440,15.34382150,.00012556,53.1590,204.4673,80.5796,279.5348,0,U,68171,999,1458,.82567271E-3,.27607E-3,0
STARLINK-37031,2026-050F,2026-06-08T09:43:30.439488,15.34398171,.00013874,53.1587,204.5723,83.3074,276.8087,0,U,68172,999,1458,.516319E-3,.17107E-3,0
STARLINK-37076,2026-050G,2026-06-08T13:00:10.675872,15.34370291,.00011361,53.1569,203.9965,103.5382,256.5747,0,U,68173,999,1460,.61629436E-3,.20484E-3,0
STARLINK-37078,2026-050H,2026-06-08T09:40:29.352864,15.34386145,.00011952,53.1574,204.5507,68.3069,291.8060,0,U,68174,999,1458,.48810987E-3,.16144E-3,0
STARLINK-36886,2026-050J,2026-06-08T19:45:31.080096,15.34393005,.0001219,53.1575,202.1965,87.9939,272.1204,0,U,68175,999,1465,.8114E-4,.2366E-4,0
STARLINK-36905,2026-050K,2026-06-08T09:37:26.794848,15.34401627,.00012902,53.1585,204.5368,85.5410,274.5740,0,U,68176,999,1458,.54362996E-3,.18036E-3,0
STARLINK-36668,2026-050L,2026-06-08T10:31:51.729888,15.34394425,.00014329,53.1594,204.0822,81.5525,278.5640,0,U,68177,999,1459,.38843271E-3,.12768E-3,0
STARLINK-36677,2026-050M,2026-06-08T20:09:46.772352,15.34379554,.0000981,53.1578,202.2947,58.7095,301.4003,0,U,68178,999,1465,.75753E-3,.25288E-3,0
STARLINK-37052,2026-050N,2026-06-08T20:11:34.145088,15.38839026,.0001212,53.1582,202.3167,76.4464,283.6676,0,U,68179,999,1465,.86641E-3,.33532E-3,0
STARLINK-37035,2026-050P,2026-06-08T20:07:37.449696,15.38848100,.0001413,53.1582,202.2962,87.5555,272.5611,0,U,68180,999,1465,.93895E-3,.36397E-3,0
STARLINK-37032,2026-050Q,2026-06-08T09:31:23.058624,15.34395398,.00011829,53.1595,204.5182,84.8727,275.2411,0,U,68181,999,1458,.74578113E-3,.24901E-3,0
STARLINK-37082,2026-050R,2026-06-08T09:34:25.190688,15.34401191,.00012895,53.1583,204.5336,83.5302,276.5847,0,U,68182,999,1458,.75528287E-3,.25229E-3,0
STARLINK-37102,2026-050S,2026-06-08T20:10:17.967072,15.38861543,.0001624,53.1576,202.3095,80.1996,279.9192,0,U,68183,999,1465,.80921E-3,.31306E-3,0
STARLINK-36964,2026-050T,2026-06-08T09:25:19.590240,15.34415125,.00011912,53.1596,204.4902,79.2922,280.8215,0,U,68184,999,1458,.76408225E-3,.2554E-3,0
STARLINK-37061,2026-050U,2026-06-08T19:27:21.496608,15.34398108,.0001186,53.1576,202.1213,99.0739,261.0398,0,U,68185,999,1465,.69303E-3,.2311E-3,0
STARLINK-37079,2026-050V,2026-06-08T20:00:03.000384,15.34396905,.0000669,53.1580,202.1428,116.3256,311.0846,0,U,68186,999,580,-.19293E-3,-.6888E-4,0
STARLINK-37006,2026-050W,2026-06-08T08:15:46.363968,15.34396930,.00013062,53.1572,204.8964,95.7750,264.3401,0,U,68187,999,1457,.50157107E-3,.16606E-3,0
STARLINK-36305,2026-050Y,2026-06-08T09:58:39.258624,15.34401721,.00013073,53.1589,204.6320,98.1861,261.9290,0,U,68189,999,1448,.58674272E-3,.195E-3,0
STARLINK-37071,2026-050Z,2026-06-08T09:55:37.269984,15.34395128,.00010953,53.1569,204.6122,75.1163,284.9961,0,U,68190,999,1458,.29752842E-3,.9688E-4,0
STARLINK-37091,2026-050AA,2026-06-08T09:22:17.512608,15.34444483,.00012631,53.1581,204.4636,119.4739,240.6390,0,U,68191,999,1458,.21379744E-2,.72664E-3,0
STARLINK-37098,2026-050AB,2026-06-08T20:06:44.280864,15.34400548,.0001324,53.1590,202.2837,91.3555,268.7599,0,U,68192,999,1465,.67854E-3,.22619E-3,0
STARLINK-37090,2026-050AC,2026-06-08T09:28:22.856736,15.34406796,.00012496,53.1588,204.4957,80.3971,279.7173,0,U,68193,999,1458,.47298718E-3,.15641E-3,0
STARLINK-37093,2026-050AD,2026-06-08T20:12:48.449952,15.34401354,.0001568,53.1579,202.3126,74.3476,285.7699,0,U,68194,999,1465,.81079E-3,.27118E-3,0
STARLINK-37058,2026-050AE,2026-06-08T19:39:29.977344,15.34411076,.0001521,53.1573,202.1686,83.5640,276.5535,0,U,68195,999,1309,.70131E-3,.23401E-3,0
YAOGAN-50 02,2026-051A,2026-06-08T13:14:09.568032,13.83267231,.00006439,141.9889,285.8857,293.4826,66.5826,0,U,68196,999,1179,.13188413E-3,.333E-5,0
2026-052A,2026-052A,2026-06-08T18:09:09.339840,15.10846887,.0012541,97.5329,234.6603,342.4285,17.6509,0,U,68198,999,1277,.42456E-3,.7011E-4,0
YUXING-3 06,2026-052B,2026-06-08T18:04:06.852576,15.10785364,.0011875,97.5329,234.6647,345.0417,15.0459,0,U,68199,999,1277,.33266E-3,.5468E-4,0
2026-052C,2026-052C,2026-06-08T19:37:48.277632,15.10904125,.0001622,97.5326,234.7324,87.9488,272.1927,0,U,68200,999,1277,.16952E-3,.276E-4,0
2026-052D,2026-052D,2026-06-08T17:30:25.805376,15.11320715,.0010876,97.5338,234.6941,346.6150,13.4790,0,U,68201,999,1277,.37611E-3,.6282E-4,0
